*******************************************************************************
Ephemeris / WWW_USER Mon Mar 10 08:41:21 2025 Pasadena, USA      / Horizons    
*******************************************************************************
Target body name: ASASSN (C/2017 O1)              {source: JPL#21}
Center body name: Earth (399)                     {source: DE441}
Center-site name: Mauna Kea
*******************************************************************************
Start time      : A.D. 2018-Sep-25 04:25:00.0000 UT      
Stop  time      : A.D. 2018-Sep-25 16:02:00.0000 UT      
Step-size       : 1 minutes
*******************************************************************************
Target pole/equ : undefined
Target radii    : undefined                                                    
Center geodetic : 204.5278, 19.8260847, 4.21024   {E-lon(deg),Lat(deg),Alt(km)}
Center cylindric: 204.5278, 6006.35451, 2151.0229 {E-lon(deg),Dxy(km),Dz(km)}
Center pole/equ : ITRF93                          {East-longitude positive}
Center radii    : 6378.137, 6378.137, 6356.752 km {Equator_a, b, pole_c}       
Target primary  : Sun
Vis. interferer : MOON (R_eq= 1737.400) km        {source: DE441}
Rel. light bend : Sun                             {source: DE441}
Rel. lght bnd GM: 1.3271E+11 km^3/s^2                                          
Small-body perts: Yes                             {source: SB441-N16}
Atmos refraction: NO (AIRLESS)
RA format       : HMS
Time format     : CAL 
Calendar mode   : Mixed Julian/Gregorian
RTS-only print  : NO       
EOP file        : eop.250307.p250603                                           
EOP coverage    : DATA-BASED 1962-JAN-20 TO 2025-MAR-07. PREDICTS-> 2025-JUN-02
Units conversion: 1 au= 149597870.700 km, c= 299792.458 km/s, 1 day= 86400.0 s 
Table cut-offs 1: Elevation (-90.0deg=NO ),Airmass (>38.000=NO), Daylight (YES)
Table cut-offs 2: Solar elongation (  0.0,180.0=NO ),Local Hour Angle( 0.0=NO )
Table cut-offs 3: RA/DEC angular rate (     0.0=NO )                           
*******************************************************************************
Initial IAU76/J2000 heliocentric ecliptic osculating elements (au, days, deg.):
  EPOCH=  2458039.5 ! 2017-Oct-13.0000000 (TDB)    RMSW= n.a.                  
   EC= .9964254882304144   QR= 1.498687032290766   TP= 2458041.2851755521      
   OM= 25.80948799039273   W= 20.90785287564418    IN= 39.84841297991522       
  Equivalent ICRF heliocentric cartesian coordinates (au, au/d):
   X= 1.103880574170232E+00  Y= 7.544591652134763E-01  Z= 6.774428678789283E-01
  VX=-1.240653547490291E-02 VY= 4.322571932715848E-03 VZ= 1.488380440184248E-02
Comet physical (GM= km^3/s^2; RAD= km):                                        
   GM= n.a.                RAD= n.a.                                           
   M1=  12.4     M2=  n.a.     k1=  8.75   k2= n.a.     PHCOF= n.a.            
*******************************************************************************
 Date__(UT)__HR:MN     R.A._________(ICRF)_________DEC
******************************************************
$$SOE
 2018-Sep-25 08:35  m  11 53 23.794362 +27 29 23.57036
 2018-Sep-25 08:36  m  11 53 23.834551 +27 29 23.29707
 2018-Sep-25 08:37  m  11 53 23.874741 +27 29 23.02379
 2018-Sep-25 08:38  m  11 53 23.914931 +27 29 22.75052
 2018-Sep-25 08:39  m  11 53 23.955121 +27 29 22.47727
 2018-Sep-25 08:40  m  11 53 23.995313 +27 29 22.20404
 2018-Sep-25 08:41  m  11 53 24.035505 +27 29 21.93082
 2018-Sep-25 08:42  m  11 53 24.075697 +27 29 21.65762
 2018-Sep-25 08:43  m  11 53 24.115890 +27 29 21.38443
 2018-Sep-25 08:44  m  11 53 24.156084 +27 29 21.11126
 2018-Sep-25 08:45  m  11 53 24.196279 +27 29 20.83810
 2018-Sep-25 08:46  m  11 53 24.236474 +27 29 20.56496
 2018-Sep-25 08:47  m  11 53 24.276669 +27 29 20.29183
 2018-Sep-25 08:48  m  11 53 24.316865 +27 29 20.01872
 2018-Sep-25 08:49  m  11 53 24.357062 +27 29 19.74563
 2018-Sep-25 08:50  m  11 53 24.397259 +27 29 19.47255
 2018-Sep-25 08:51  m  11 53 24.437457 +27 29 19.19949
 2018-Sep-25 08:52  m  11 53 24.477655 +27 29 18.92644
 2018-Sep-25 08:53  m  11 53 24.517854 +27 29 18.65340
 2018-Sep-25 08:54  m  11 53 24.558054 +27 29 18.38039
 2018-Sep-25 08:55  m  11 53 24.598253 +27 29 18.10739
 2018-Sep-25 08:56  m  11 53 24.638454 +27 29 17.83440
 2018-Sep-25 08:57  m  11 53 24.678655 +27 29 17.56143
 2018-Sep-25 08:58  m  11 53 24.718856 +27 29 17.28847
 2018-Sep-25 08:59  m  11 53 24.759058 +27 29 17.01554
 2018-Sep-25 09:00  m  11 53 24.799260 +27 29 16.74261
 2018-Sep-25 09:01  m  11 53 24.839462 +27 29 16.46970
 2018-Sep-25 09:02  m  11 53 24.879665 +27 29 16.19681
 2018-Sep-25 09:03  m  11 53 24.919869 +27 29 15.92394
 2018-Sep-25 09:04  m  11 53 24.960073 +27 29 15.65108
 2018-Sep-25 09:05  m  11 53 25.000277 +27 29 15.37823
 2018-Sep-25 09:06  m  11 53 25.040482 +27 29 15.10540
 2018-Sep-25 09:07  m  11 53 25.080687 +27 29 14.83259
 2018-Sep-25 09:08  m  11 53 25.120893 +27 29 14.55979
 2018-Sep-25 09:09  m  11 53 25.161098 +27 29 14.28701
 2018-Sep-25 09:10  m  11 53 25.201305 +27 29 14.01425
 2018-Sep-25 09:11  m  11 53 25.241511 +27 29 13.74150
 2018-Sep-25 09:12  m  11 53 25.281718 +27 29 13.46876
 2018-Sep-25 09:13  m  11 53 25.321925 +27 29 13.19604
 2018-Sep-25 09:14  m  11 53 25.362133 +27 29 12.92334
 2018-Sep-25 09:15  m  11 53 25.402341 +27 29 12.65066
 2018-Sep-25 09:16  m  11 53 25.442549 +27 29 12.37799
 2018-Sep-25 09:17  m  11 53 25.482757 +27 29 12.10533
 2018-Sep-25 09:18  m  11 53 25.522966 +27 29 11.83269
 2018-Sep-25 09:19  m  11 53 25.563175 +27 29 11.56007
 2018-Sep-25 09:20  m  11 53 25.603384 +27 29 11.28746
 2018-Sep-25 09:21  m  11 53 25.643594 +27 29 11.01487
 2018-Sep-25 09:22  m  11 53 25.683804 +27 29 10.74230
 2018-Sep-25 09:23  m  11 53 25.724013 +27 29 10.46974
 2018-Sep-25 09:24  m  11 53 25.764224 +27 29 10.19720
 2018-Sep-25 09:25  m  11 53 25.804434 +27 29 09.92467
 2018-Sep-25 09:26  m  11 53 25.844645 +27 29 09.65216
 2018-Sep-25 09:27  m  11 53 25.884855 +27 29 09.37967
 2018-Sep-25 09:28  m  11 53 25.925066 +27 29 09.10719
 2018-Sep-25 09:29  m  11 53 25.965278 +27 29 08.83472
 2018-Sep-25 09:30  m  11 53 26.005489 +27 29 08.56228
 2018-Sep-25 09:31  m  11 53 26.045700 +27 29 08.28985
 2018-Sep-25 09:32  m  11 53 26.085912 +27 29 08.01743
 2018-Sep-25 09:33  m  11 53 26.126124 +27 29 07.74503
 2018-Sep-25 09:34  m  11 53 26.166336 +27 29 07.47265
 2018-Sep-25 09:35  m  11 53 26.206548 +27 29 07.20029
 2018-Sep-25 09:36  m  11 53 26.246760 +27 29 06.92794
 2018-Sep-25 09:37  m  11 53 26.286972 +27 29 06.65560
 2018-Sep-25 09:38  m  11 53 26.327184 +27 29 06.38328
 2018-Sep-25 09:39  m  11 53 26.367396 +27 29 06.11098
 2018-Sep-25 09:40  m  11 53 26.407609 +27 29 05.83870
 2018-Sep-25 09:41  m  11 53 26.447821 +27 29 05.56643
 2018-Sep-25 09:42  m  11 53 26.488034 +27 29 05.29417
 2018-Sep-25 09:43  m  11 53 26.528246 +27 29 05.02194
 2018-Sep-25 09:44  m  11 53 26.568459 +27 29 04.74972
 2018-Sep-25 09:45  m  11 53 26.608671 +27 29 04.47751
 2018-Sep-25 09:46  m  11 53 26.648884 +27 29 04.20532
 2018-Sep-25 09:47  m  11 53 26.689096 +27 29 03.93315
 2018-Sep-25 09:48  m  11 53 26.729309 +27 29 03.66099
 2018-Sep-25 09:49  m  11 53 26.769521 +27 29 03.38885
 2018-Sep-25 09:50  m  11 53 26.809734 +27 29 03.11673
 2018-Sep-25 09:51  m  11 53 26.849946 +27 29 02.84462
 2018-Sep-25 09:52  m  11 53 26.890159 +27 29 02.57253
 2018-Sep-25 09:53  m  11 53 26.930371 +27 29 02.30045
 2018-Sep-25 09:54  m  11 53 26.970583 +27 29 02.02839
 2018-Sep-25 09:55  m  11 53 27.010795 +27 29 01.75635
 2018-Sep-25 09:56  m  11 53 27.051008 +27 29 01.48432
 2018-Sep-25 09:57  m  11 53 27.091220 +27 29 01.21231
 2018-Sep-25 09:58  m  11 53 27.131431 +27 29 00.94032
 2018-Sep-25 09:59  m  11 53 27.171643 +27 29 00.66834
 2018-Sep-25 10:00  m  11 53 27.211855 +27 29 00.39637
 2018-Sep-25 10:01  m  11 53 27.252066 +27 29 00.12443
 2018-Sep-25 10:02  m  11 53 27.292277 +27 28 59.85250
 2018-Sep-25 10:03  m  11 53 27.332488 +27 28 59.58058
 2018-Sep-25 10:04  m  11 53 27.372699 +27 28 59.30868
 2018-Sep-25 10:05  m  11 53 27.412910 +27 28 59.03680
 2018-Sep-25 10:06  m  11 53 27.453121 +27 28 58.76494
 2018-Sep-25 10:07  m  11 53 27.493331 +27 28 58.49309
 2018-Sep-25 10:08  m  11 53 27.533541 +27 28 58.22125
 2018-Sep-25 10:09  m  11 53 27.573751 +27 28 57.94944
 2018-Sep-25 10:10  m  11 53 27.613961 +27 28 57.67764
 2018-Sep-25 10:11  m  11 53 27.654170 +27 28 57.40585
 2018-Sep-25 10:12  m  11 53 27.694380 +27 28 57.13408
 2018-Sep-25 10:13  m  11 53 27.734588 +27 28 56.86233
 2018-Sep-25 10:14  m  11 53 27.774797 +27 28 56.59059
 2018-Sep-25 10:15  m  11 53 27.815006 +27 28 56.31887
 2018-Sep-25 10:16  m  11 53 27.855214 +27 28 56.04717
 2018-Sep-25 10:17  m  11 53 27.895421 +27 28 55.77548
 2018-Sep-25 10:18  m  11 53 27.935629 +27 28 55.50381
 2018-Sep-25 10:19  m  11 53 27.975836 +27 28 55.23215
 2018-Sep-25 10:20  m  11 53 28.016043 +27 28 54.96051
 2018-Sep-25 10:21  m  11 53 28.056249 +27 28 54.68889
 2018-Sep-25 10:22  m  11 53 28.096455 +27 28 54.41728
 2018-Sep-25 10:23  m  11 53 28.136661 +27 28 54.14569
 2018-Sep-25 10:24  m  11 53 28.176867 +27 28 53.87412
 2018-Sep-25 10:25  m  11 53 28.217072 +27 28 53.60256
 2018-Sep-25 10:26  m  11 53 28.257276 +27 28 53.33101
 2018-Sep-25 10:27  m  11 53 28.297480 +27 28 53.05949
 2018-Sep-25 10:28  m  11 53 28.337684 +27 28 52.78798
 2018-Sep-25 10:29  m  11 53 28.377888 +27 28 52.51648
 2018-Sep-25 10:30  m  11 53 28.418091 +27 28 52.24500
 2018-Sep-25 10:31  m  11 53 28.458293 +27 28 51.97354
 2018-Sep-25 10:32  m  11 53 28.498495 +27 28 51.70209
 2018-Sep-25 10:33  m  11 53 28.538697 +27 28 51.43066
 2018-Sep-25 10:34  m  11 53 28.578898 +27 28 51.15925
 2018-Sep-25 10:35  m  11 53 28.619098 +27 28 50.88785
 2018-Sep-25 10:36  m  11 53 28.659299 +27 28 50.61646
 2018-Sep-25 10:37  m  11 53 28.699498 +27 28 50.34510
 2018-Sep-25 10:38  m  11 53 28.739697 +27 28 50.07375
 2018-Sep-25 10:39  m  11 53 28.779896 +27 28 49.80241
